{
    "links": {
        "self": "http://www.neowsapp.com/rest/v1/neo/3274165?api_key=iIulBulltgU6a56xZRHN4H3l9WmuAYTsLGpBGhQ2"
    },
    "id": "3274165",
    "neo_reference_id": "3274165",
    "name": "(2005 EJ169)",
    "designation": "2005 EJ169",
    "nasa_jpl_url": "http://ssd.jpl.nasa.gov/sbdb.cgi?sstr=3274165",
    "absolute_magnitude_h": 22.9,
    "estimated_diameter": {
        "kilometers": {
            "estimated_diameter_min": 0.0699125232,
            "estimated_diameter_max": 0.1563291544
        },
        "meters": {
            "estimated_diameter_min": 69.9125232246,
            "estimated_diameter_max": 156.3291544087
        },
        "miles": {
            "estimated_diameter_min": 0.0434416145,
            "estimated_diameter_max": 0.097138403
        },
        "feet": {
            "estimated_diameter_min": 229.3718026961,
            "estimated_diameter_max": 512.8909429502
        }
    },
    "is_potentially_hazardous_asteroid": false,
    "close_approach_data": [
        {
            "close_approach_date": "2005-03-06",
            "close_approach_date_full": "2005-Mar-06 20:11",
            "epoch_date_close_approach": 1110139860000,
            "relative_velocity": {
                "kilometers_per_second": "11.7803372423",
                "kilometers_per_hour": "42409.2140722526",
                "miles_per_hour": "26351.4363772839"
            },
            "miss_distance": {
                "astronomical": "0.0446932114",
                "lunar": "17.3856592346",
                "kilometers": "6686009.228899718",
                "miles": "4154493.4884153884"
            },
            "orbiting_body": "Earth"
        },
        {
            "close_approach_date": "2007-11-02",
            "close_approach_date_full": "2007-Nov-02 00:45",
            "epoch_date_close_approach": 1193964300000,
            "relative_velocity": {
                "kilometers_per_second": "25.2588443903",
                "kilometers_per_hour": "90931.839804922",
                "miles_per_hour": "56501.5090165639"
            },
            "miss_distance": {
                "astronomical": "0.4573886733",
                "lunar": "177.9241939137",
                "kilometers": "68424371.287805871",
                "miles": "42516932.7818721798"
            },
            "orbiting_body": "Earth"
        }
    ],
    "orbital_data": {
        "orbit_id": "10",
        "orbit_determination_date": "2017-04-06 09:11:17",
        "first_observation_date": "2005-03-11",
        "last_observation_date": "2005-04-01",
        "data_arc_in_days": 21,
        "observations_used": 35,
        "orbit_uncertainty": "8",
        "minimum_orbit_intersection": ".0239248",
        "jupiter_tisserand_invariant": "3.591",
        "epoch_osculation": "2453443.5",
        "eccentricity": ".5706112388634189",
        "semi_major_axis": "2.017019785070897",
        "inclination": "8.627497494063322",
        "ascending_node_longitude": "359.0787854436511",
        "orbital_period": "1046.317921991805",
        "perihelion_distance": ".8660856266995655",
        "perihelion_argument": "120.1945133989164",
        "aphelion_distance": "3.167953943442229",
        "perihelion_time": "2453401.373451506252",
        "mean_anomaly": "14.49421551422882",
        "mean_motion": ".344063685074506",
        "equinox": "J2000",
        "orbit_class": {
            "orbit_class_type": "APO",
            "orbit_class_description": "Near-Earth asteroid orbits which cross the Earth’s orbit similar to that of 1862 Apollo",
            "orbit_class_range": "a (semi-major axis) > 1.0 AU; q (perihelion) < 1.017 AU"
        }
    },
    "is_sentry_object": false
}